{"type":"FeatureCollection","name":"turkestan_boundary","crs":{"type":"name","properties":{"name":"urn:ogc:def:crs:OGC:1.3:CRS84"}},"features":[{"type":"Feature","properties":{"GID_1":"KAZ.12_1","GID_0":"KAZ","COUNTRY":"Kazakhstan","NAME_1":"South Kazakhstan","VARNAME_1":"Chimkent","NL_NAME_1":"NA","TYPE_1":"Oblasy","ENGTYPE_1":"Region","CC_1":"NA","HASC_1":"KZ.SK","ISO_1":"NA"},"geometry":{"type":"MultiPolygon","coordinates":[[[[70.35861206000015,42.68490600600012],[70.43233490000017,42.68814468300013],[70.44364929200003,42.65462494000019],[70.50274658200016,42.63839721700015],[70.50846099900019,42.60538101200018],[70.54105377200011,42.59915161200007],[70.55364227400008,42.57392883300008],[70.58216095000017,42.54370498700007],[70.63674163800016,42.536190033000025],[70.70495605400004,42.44820404200016],[70.78511810300006,42.46379852300004],[70.802795409,42.43975448600003],[70.79070281999998,42.414478302000134],[70.78462219200014,42.40176773100018],[70.82807159400016,42.40033721900011],[70.82867431700004,42.37697219900008],[70.87881469600006,42.343135834000066],[70.88494873100018,42.33909988400012],[70.88473510600016,42.33865737899998],[70.88449859500008,42.33817291300005],[70.88388061600017,42.337451935000104],[70.8842468260001,42.335208892000026],[70.88402557300003,42.332618713000045],[70.88276672400019,42.329273224000076],[70.879135131,42.32637786800018],[70.8778610240002,42.32550048900015],[70.87562561000016,42.324256897000055],[70.87474060000011,42.323211670000035],[70.8747329700002,42.323139191000166],[70.87419128500005,42.32255172700002],[70.87336730900012,42.32157898100019],[70.87191009500015,42.31868744000013],[70.87181854300019,42.31847000200008],[70.8711166380001,42.295280456],[70.871673584,42.29250335800009],[70.87341308600008,42.29123687700019],[70.87998962400013,42.28782653900009],[70.88392639100016,42.28408432100008],[70.88873291100009,42.278137207999976],[70.88969421400014,42.27375030500019],[70.89173126200012,42.269077301000095],[70.8934249880001,42.26494216900005],[70.89584350700011,42.262683869000114],[70.90093231300017,42.262088776000155],[70.91177368100011,42.26162719700005],[70.91889190700005,42.26359176600016],[70.92314147900015,42.266632081000125],[70.93314361500012,42.266284942000084],[70.93644714400017,42.2656250010001],[70.94535064700005,42.26225280800003],[70.94021606400008,42.2591972350001],[70.93965912000016,42.25862884600002],[70.93025970400015,42.24924850399998],[70.90818023700018,42.22717666700015],[70.90734100300017,42.22634124800004],[70.90558624300013,42.225215913000056],[70.89937591500018,42.22122955400005],[70.89248657200011,42.218273163000106],[70.88530731300017,42.21519470300012],[70.87528228800016,42.21320724499998],[70.86454010000006,42.20821380600012],[70.839614869,42.19426345800014],[70.8390426630001,42.19394302500018],[70.82397460900017,42.193588258000034],[70.81665039100011,42.197940827000025],[70.81529235900018,42.19874954300013],[70.80795288100006,42.20671081600011],[70.8074874890001,42.206920623000144],[70.80095672600004,42.209873199000185],[70.79790496800013,42.20988845900018],[70.79571533200016,42.209899903000064],[70.78973388700001,42.207374572000106],[70.787239075,42.20465469400017],[70.78515625000011,42.20238494800009],[70.7771224980001,42.19840621900016],[70.76255798400007,42.18660736100003],[70.74443817200012,42.16436004600018],[70.72672271700009,42.15380477900004],[70.71483612000003,42.139358520000144],[70.7040100100001,42.13159942600009],[70.69358062700007,42.126827240000125],[70.67732238700006,42.10922241200012],[70.67406463700019,42.099014282000155],[70.67417907700008,42.08893966700015],[70.65445709300019,42.05996704200004],[70.63062286400015,42.011810303000175],[70.63178253100011,42.00864791900017],[70.62696075500008,42.00082397500012],[70.62335205100015,41.99916458200005],[70.61093139600013,41.99668121400009],[70.60191345300018,41.997066497000105],[70.57539367600015,42.01527404800015],[70.559158325,42.01873016400009],[70.55640411300004,42.022739409999986],[70.55594635000011,42.02890777600004],[70.55634307800005,42.033248902000025],[70.55722808900003,42.04291152999997],[70.55831909100004,42.05489349400017],[70.553260803,42.063068390000126],[70.55307006900006,42.06338119499998],[70.54646301300016,42.069522857000095],[70.52266693000007,42.07785034199998],[70.52246856800019,42.07791900600017],[70.52233123700012,42.07810974200015],[70.52120971700003,42.07966995300018],[70.52006530800008,42.081256867000036],[70.51914978000019,42.081443786000136],[70.51761627100007,42.08175277800012],[70.50976562500011,42.08334732000009],[70.49157714800003,42.091979980000076],[70.47857666100003,42.100479125000106],[70.45929718000014,42.11308288600014],[70.43330383300014,42.13007736200012],[70.42540741000005,42.132720947999985],[70.41710662800017,42.13259887800001],[70.41049957400008,42.13048172100008],[70.40245056200001,42.12303924500014],[70.39964294500015,42.115585328000066],[70.39585876500007,42.088844300000176],[70.39505005,42.08784103300019],[70.39109039200014,42.08291244500009],[70.3816146850001,42.07815551700014],[70.3700256350001,42.068950653],[70.36969757200006,42.068393707000155],[70.36361694400017,42.05809020900011],[70.36350250200013,42.05789947500011],[70.3595657350001,42.05611801200007],[70.34281921500002,42.04853820900007],[70.32936096200018,42.042446136000194],[70.32640838600014,42.03890609800004],[70.32261657800012,42.034362792000024],[70.32383728000019,42.030685425000115],[70.3250198360002,42.027137756000116],[70.32521057200017,42.019863128000054],[70.3253173820001,42.01546478400013],[70.33046722400007,42.00468826400004],[70.33259582600016,41.99309539800004],[70.33269500799997,41.980041504000155],[70.33089447100014,41.97560882600004],[70.32185363800005,41.96948623700018],[70.30849456900006,41.96363449100005],[70.2877120980001,41.958602905000134],[70.277061463,41.94965744000007],[70.26536560100004,41.95005798400018],[70.24029541099998,41.94116211000005],[70.2210998540001,41.920146942000144],[70.21389007600004,41.91622924900008],[70.2063980100001,41.91215896600005],[70.19802856500013,41.90559768600019],[70.18859100300011,41.89326095500002],[70.18114471400014,41.87528610300012],[70.17871856800014,41.87119293300003],[70.17250823900008,41.860691071000076],[70.15973663300014,41.84430313100006],[70.15415954700018,41.84163665800014],[70.14704895100016,41.838233949000085],[70.09075927800006,41.81848907400018],[70.08583068800016,41.815055848000156],[70.07160186800002,41.80936050400015],[70.06171417200011,41.802947998000036],[70.05342102100008,41.78836059700018],[70.04843902600004,41.77508545000018],[70.04589080800008,41.7683067320001],[70.03894805800007,41.76340484499997],[70.0317611690001,41.76146698000014],[70.02589416400019,41.76291656500007],[70.02395629800009,41.76339721700009],[70.02050781200006,41.768047333000084],[70.02159881500017,41.77703475900012],[70.01335144100005,41.78788376000006],[70.00498962400019,41.7890968320001],[69.99024963400007,41.78588867100012],[69.98455047700008,41.78081131100009],[69.9552307130001,41.72476959200009],[69.95210266100008,41.71879196200007],[69.9488296500001,41.716239930000086],[69.8905410770002,41.69708633500011],[69.88545990100005,41.696846009000126],[69.88140869100005,41.69779586800013],[69.87065124500009,41.70742034900019],[69.86949157800018,41.70845794800016],[69.859565735,41.713710784000114],[69.84350586,41.71912765500019],[69.83280181800006,41.71907425000012],[69.81504058900015,41.71225738600009],[69.80049896200018,41.70412063700019],[69.79666137700019,41.70197296200007],[69.75247955200007,41.69661331300006],[69.74990081900012,41.697586061000095],[69.7471084600001,41.69863891600005],[69.72893524100004,41.69660568300014],[69.72219085800003,41.693294525000056],[69.72083282400013,41.691036224000186],[69.71792602500005,41.68620681800013],[69.70645141500006,41.67761993500005],[69.69162750300012,41.672302246000186],[69.65922546500002,41.66542434700017],[69.63234710800003,41.661792756000125],[69.62339019800004,41.658794403000115],[69.62107086200012,41.65801620400015],[69.59461212200011,41.63949584900013],[69.59207153300014,41.63611984300002],[69.5883331300002,41.63115692100013],[69.56768798800016,41.61957168500004],[69.55839538500015,41.610847474000025],[69.53948974600007,41.59704971300016],[69.53080749500015,41.588356018000184],[69.51998138500005,41.56304931700015],[69.51490783700018,41.55843353299997],[69.49897766100014,41.55234527500005],[69.48955535900018,41.55030059900014],[69.47264862200012,41.546634675000064],[69.46432495200008,41.547580719000166],[69.45718383700017,41.54560852200012],[69.4304885860002,41.52854537999997],[69.43008422800011,41.52828598000019],[69.4208831790001,41.52240753199999],[69.40637969900018,41.50445556600005],[69.40511322000009,41.5016403190001],[69.40685272100006,41.49600219700005],[69.41400146400008,41.48720169000012],[69.43215942400008,41.479438781000056],[69.43929290900007,41.47476577700013],[69.43875885100016,41.4706115730001],[69.4319686880001,41.45833969200004],[69.43022155900002,41.45765686100009],[69.4231414790001,41.45490264900013],[69.39162445000011,41.4596748350001],[69.37538146900005,41.460655213],[69.36938476600011,41.45965194700017],[69.36385345400004,41.45684051500007],[69.34594726500006,41.45612335100003],[69.34126281800013,41.45404434200009],[69.32221222000004,41.45257568500011],[69.31752777100019,41.45049286],[69.3074417110002,41.45087432800017],[69.2858352660001,41.460269928],[69.27373504600007,41.46260452300004],[69.26898193300013,41.46216583200004],[69.24986267000014,41.4604072570001],[69.24207306000011,41.46228408800005],[69.23178863500016,41.46173095700004],[69.23146057200006,41.46171188300008],[69.20965576100008,41.45709609900007],[69.19551849300012,41.45197677700014],[69.18482971200007,41.445892334000064],[69.18091583200004,41.43840789800004],[69.1758193980001,41.428665162000186],[69.17105102400006,41.41488266100015],[69.16147613500004,41.406791687],[69.14902496399998,41.400154113999974],[69.1412124630001,41.39712142900015],[69.1132278450001,41.38626861600005],[69.10482025100009,41.372505188000105],[69.10364532500006,41.36579513600003],[69.08904266400003,41.34389496000006],[69.08850860600006,41.33996582100008],[69.08655548000007,41.338943483000094],[69.07904815600011,41.3350067130001],[69.0743331920001,41.332534790000125],[69.06328582700007,41.333526611000025],[69.05050659100016,41.342903138000054],[69.04422759900007,41.344848632000094],[69.03668975800014,41.34420013400006],[69.03324127200011,41.342170716],[69.00371551500007,41.30842209000008],[69.0007171630001,41.30183410600017],[68.99043273800015,41.292083740000066],[68.98770904500014,41.276569367000036],[68.98819732600009,41.2532081600001],[68.98629760700004,41.24782943800005],[68.98142242400019,41.24182128900003],[68.97420501800019,41.23761749200008],[68.95787811300016,41.22811126700003],[68.95143127500017,41.222702026000036],[68.94869995000005,41.21658706700009],[68.94734954900014,41.19656372100013],[68.94495391900017,41.19321823200016],[68.94033050500008,41.19089126500012],[68.9218826290001,41.19328308200005],[68.90715026800018,41.18579483100012],[68.89706420800019,41.1774215690001],[68.8930892940001,41.17169189500015],[68.88397216700008,41.16555786100014],[68.88222503700013,41.16523742800018],[68.88169098000009,41.164016723000145],[68.8714904790001,41.157154084000126],[68.86811065600017,41.15417480500008],[68.86257171700004,41.149303436000025],[68.82952118000009,41.116214753000065],[68.82778167700013,41.11244583200005],[68.81994628899997,41.10602951100003],[68.81354522700008,41.09740448000019],[68.81262207100008,41.095790864000094],[68.80325317400019,41.07938003500004],[68.79896545400015,41.076839448000044],[68.76735687200016,41.04518509000019],[68.76541137600015,41.041801454000165],[68.751670837,41.01789855900017],[68.74845123400019,40.99317550800015],[68.74480438300014,40.98745727500011],[68.71597290000017,40.96764755200019],[68.71031188900014,40.96685409700018],[68.687911987,40.95819091800007],[68.67635345500008,40.95589828600009],[68.67401885900017,40.95442962700014],[68.6628265390001,40.947387695000145],[68.65484619000017,40.94236373900014],[68.65393829300012,40.94179153500005],[68.64788818400018,40.93798446700015],[68.64525604300007,40.93632888900015],[68.6397247320001,40.94454956200008],[68.6335906990002,40.953670502000136],[68.63359832700007,40.953842162000115],[68.63420867800005,40.962970735000056],[68.63828277599998,40.96870422400008],[68.65766906700009,40.97426605200019],[68.6694946290001,40.97766113300014],[68.67250061000004,40.983116149000125],[68.66458129900019,40.98933792100013],[68.65446472200006,40.990982055000075],[68.64420318600014,40.99265289300013],[68.62681579700006,40.98669052100013],[68.61246490400009,40.990810395000096],[68.60967254600013,40.995887757000105],[68.60801696800013,41.01050949000012],[68.60141754200009,41.01195907600015],[68.60159301700014,41.01425171000011],[68.60171508800005,41.01583862300009],[68.60045623700006,41.01534652700019],[68.59635162400019,41.01374816900011],[68.58889007500017,41.01106262300016],[68.5706939690001,41.00211334200014],[68.55615234300006,40.994518281000126],[68.55070495500019,40.991672515],[68.54650878900009,40.99769973700012],[68.54463958800005,41.000381470000036],[68.543846131,41.001518249000185],[68.54257965200014,41.00157928400017],[68.54225921699998,41.0015945450001],[68.43734741100008,41.006587981999985],[68.437652588,40.985408784000185],[68.51580810500008,40.981533050000166],[68.53489685000005,40.95886230500008],[68.51640319800003,40.943946839000034],[68.53787994400011,40.902481080000086],[68.5190887460002,40.78017425700017],[68.59008026100008,40.705596924000076],[68.61454772899998,40.65130615300018],[68.6500015260001,40.6369209290001],[68.66674804800016,40.63012695300017],[68.67372131400015,40.61719512999997],[68.68373107900015,40.59862518400007],[68.68395233200005,40.598064423000096],[68.68486785900006,40.595706940000184],[68.59157562300015,40.567184449000194],[68.53967285100003,40.5701675410001],[68.5220718380001,40.551673889000085],[68.50441741900016,40.555625915000064],[68.41677093400011,40.575237274000074],[68.42840576200018,40.59403228700012],[68.38723754800009,40.619983673000036],[68.34636688300014,40.611633301000154],[68.2674179080002,40.66293716500007],[68.25777435400005,40.66920471200007],[68.18841552600014,40.6878700260001],[68.17573547400008,40.69128036600017],[68.09817505000018,40.75750350900006],[68.01690673900015,40.79429626600006],[67.97322082500006,40.81351852400013],[67.94906616300005,40.81863784900014],[67.92044830400005,40.82469940300007],[67.88935089200004,40.85754775999999],[67.8895187380001,40.857948304000104],[67.90507507400008,40.89494323700018],[67.9931411730002,40.897388459000126],[67.99139404400012,40.98300933900015],[68.02354431100008,41.00712203900008],[67.99349212700008,41.06373214700011],[68.02389526400009,41.087848664000035],[68.05345153900015,41.09200668400018],[68.0710678100001,41.09448623700007],[68.0773620600001,41.09658432100014],[68.06088256800012,41.10398101800007],[68.06023407000009,41.10427093600009],[68.05965423500015,41.10406112600015],[68.05286407400013,41.101608276000036],[68.05073547400019,41.100978852000026],[68.04763030900006,41.10006332400013],[68.03504180900012,41.10868072500017],[68.02886200000012,41.11306381300011],[68.01852417000009,41.12039566200019],[68.01760101400009,41.12104797500007],[68.01723480200019,41.12086486900006],[68.01708984300018,41.1209640510001],[68.01064300600012,41.11777496400009],[67.95178222700008,41.08866119500004],[67.93347168000003,41.108184815000186],[67.93316650300011,41.107978820000085],[67.93302917400018,41.108116151],[67.90164184600008,41.08684158400018],[67.87388610800019,41.10636138900014],[67.82979583700018,41.137371062],[67.81529998700017,41.1505928040001],[67.81211853100018,41.15354538000014],[67.79394531200012,41.17066955500013],[67.7855606080002,41.17800903400013],[67.76668548700019,41.181854249000025],[67.75154876700009,41.192295076000164],[67.73628234900008,41.20281982400007],[67.60642242400019,41.205554962000065],[67.43993377800012,41.20970153900004],[67.40283203200005,41.21059036300005],[67.37535095200019,41.20732879600007],[67.34834289600019,41.20058822700008],[67.32946014400011,41.202655792000144],[67.31117248400005,41.21179199200009],[67.25221252400013,41.2119369510001],[67.1517639170001,41.22052764900013],[67.11311340300011,41.22240448000008],[67.0,41.22779846200018],[66.93140411400003,41.2340774540001],[66.81343078600014,41.239818573000036],[66.77532959000013,41.24187088100007],[66.72833252000004,41.24440002500006],[66.69913482700014,41.245971679000036],[66.6550292980001,41.24834823700007],[66.63630676300005,41.24903106700009],[66.6226043710002,41.24953079300019],[66.60610199000013,41.25140380800019],[66.60153198300014,41.278152467000155],[66.6014556880001,41.279361726000104],[66.59963989200014,41.30930709900019],[66.59879303000008,41.31524658200004],[66.59314727800012,41.35480880800014],[66.58011627200017,41.47752761900017],[66.57058715800008,41.56506729100016],[66.56914520300006,41.57551193300014],[66.561935425,41.64266586300005],[66.5572128290001,41.68574905400004],[66.547721862,41.761798860000056],[66.53135681200007,41.89372253400012],[66.5309448230002,41.89551544300008],[66.53076172000004,41.89629364000007],[66.53015899600013,41.896354675000055],[66.52984080200008,41.89638617900016],[66.52941374200009,41.89642846200019],[66.52938842800012,41.89643096900011],[66.47821045000012,41.901569367000036],[66.41462707500017,41.90713119500015],[66.3918017520001,41.90922751300002],[66.355727,41.912541],[66.30605300000019,41.91710300000017],[66.243347,41.922501],[66.217773,41.92468300000013],[66.19772395600012,41.926463879000096],[66.17351802500008,41.92861441200017],[66.11369323600007,41.93392944300018],[66.10724444800007,41.93435571800018],[66.10384000000016,41.934581],[66.09568800000011,41.93512],[66.06585700000016,41.93777500000016],[66.0504000000002,41.939713],[66.00854500000014,41.943497],[66.008353,41.948056],[66.00793120100002,41.958043771],[66.00756835800013,41.966644287],[66.00728036600009,41.97164277900009],[66.007254,41.972101],[66.00691487100016,41.97799349100006],[66.00690500100006,41.97816500000016],[66.00820951500015,41.98709852800016],[66.0084,41.988403001],[66.008496504,41.992769103000114],[66.00898792700008,42.01499187100018],[66.00939941400009,42.0335998540001],[66.00925639600018,42.04499019000019],[66.009186,42.050613],[66.00921525200016,42.05146890200018],[66.01007100099997,42.07650800000016],[66.0110199940001,42.092033994000076],[66.01107800000011,42.092983001],[66.01092240500009,42.099636137000175],[66.01051330600006,42.11714172400008],[66.0108032220001,42.13320922900016],[66.01100749000011,42.13834403000004],[66.0112250310001,42.143812449000166],[66.01141357400013,42.14855194100005],[66.01176452700014,42.17793655500009],[66.01250457700007,42.19213104300019],[66.01245178700015,42.199288522000074],[66.01241827200016,42.203832508000175],[66.01241302500017,42.20454406700014],[66.01355743400006,42.23272705000011],[66.01382446400015,42.24028778100012],[66.013374328,42.24634170500008],[66.01921318400014,42.251547773000084],[66.0210900260002,42.253221212000085],[66.03305053700007,42.26388549800015],[66.03442382900005,42.336380005000024],[66.03528595000006,42.369915008000135],[66.0354296180002,42.36991686700003],[66.04059600800008,42.36998367400014],[66.07649495700008,42.357441219000066],[66.07845927100004,42.356754923000096],[66.07946113600008,42.35640487900008],[66.07949800100005,42.356391999000095],[66.08111459100019,42.35565357600018],[66.09300994900013,42.350219728000184],[66.10566711500007,42.347320557000046],[66.10579058900015,42.34875836100014],[66.1060047630001,42.35125233200017],[66.10693359400011,42.36206817600015],[66.19407653800016,42.34627914400011],[66.28285217300015,42.414478302000134],[66.59861790200017,42.657050972000036],[66.64322393000015,42.63675683400004],[66.71826026100001,42.602617994000184],[66.73956298900015,42.5929260260001],[66.74782523400012,42.599074455000164],[66.772975,42.61779000000013],[67.01730482200014,42.799610531000155],[67.0214,42.80265800000018],[67.103824,42.848282000000154],[67.27195,42.941345],[67.3983378910001,42.975624971],[67.399551,42.97595400000017],[67.539459,43.013901],[67.54042101400006,43.01425369200007],[67.87153676000014,43.135647130000166],[67.96965789800004,43.18161392200011],[67.97360992500012,43.21463012600003],[67.90242767300015,43.200828552000075],[67.86396789500014,43.26872253400012],[67.8817291250001,43.322040559000186],[67.82339477600016,43.32013321],[67.83431243800004,43.36544036800012],[67.77939605700004,43.34257125900018],[67.79555511500018,43.27960968100007],[67.75273895300012,43.26039505000017],[67.72278595000012,43.35712432800017],[67.82409667900004,43.378307343000074],[67.84480285700016,43.460670471000185],[67.83675384500015,43.494262695000145],[67.93215179500015,43.565299988000106],[67.9314041130001,43.72342681800018],[68.03042602500017,43.66097640900017],[68.07308960000006,43.675758362000124],[68.08482360900007,43.78339386000016],[68.05543518000002,43.83879089400017],[68.03415680000018,43.86053848300003],[68.08551788400007,43.89988708400017],[68.14644622700007,43.917949676000035],[68.18527984700012,43.89535904000013],[68.2556915290001,43.94617462100007],[67.98069000200019,44.08776092500011],[67.86576843200015,44.188537598000096],[67.86308288600003,44.22200012300004],[67.74822235099998,44.268440247000115],[67.68714141900006,44.25420379700006],[67.58063507100019,44.32924270600017],[67.59242248599998,44.391372680000075],[67.6122741710002,44.41146850600012],[67.60632324200014,45.112968446000025],[67.4470825200001,45.16098404000002],[67.25666809000018,45.272514344000115],[67.32035064700017,45.43739700300006],[67.32984924400017,45.54156112700008],[67.36110687200005,45.61563873299997],[67.421783447,45.67601394700017],[67.45046997100013,45.720886230000076],[67.42003631600016,45.788993835999975],[67.26203918400012,45.87454223700013],[67.27574157700013,45.957717895000144],[69.12197113000013,45.93558883600019],[69.17079162700003,45.93693161100015],[69.35206603900008,45.72954559300007],[69.39933776900017,45.62213897800001],[69.44142150900018,45.523414612000124],[69.57863616900016,45.27672576900011],[69.7022628790001,44.8972930920001],[69.75968933000007,44.839340211000035],[69.8366012570001,44.53823089600019],[69.92654418900014,44.09949112000015],[69.88903808600008,44.08119201700015],[69.87083435100016,43.995170594000115],[69.80150604200003,43.91667556800013],[69.78485870399999,43.801601411000036],[69.65930938600013,43.57344436700009],[69.66204071100009,43.55257034400006],[69.53396606500019,43.423961640000186],[69.52648162900016,43.41200637800006],[69.63175201500007,43.384773254000095],[69.60417938300009,43.35339355600007],[69.64711761500007,43.25555419900007],[69.70124053900003,43.27283096300016],[69.72393798700006,43.271392823000156],[69.71274566700004,43.234874725000054],[69.7826080320001,43.24283218500011],[69.88832092300015,43.186382295000044],[69.91975402800011,43.24220657300009],[69.94239044100016,43.240718841000046],[69.96179199300013,43.181571959999985],[69.98438262900004,43.18008041400003],[70.05213928200016,43.1755714410001],[70.07648468000008,43.14915084800015],[70.11225891100003,43.159133911000026],[70.13719940200014,43.13679122900004],[70.1187896720001,43.09260559100005],[70.1698532100001,43.0561141980001],[70.20687103200015,43.074237825000125],[70.23300933900003,43.06006240800008],[70.197036744,43.01297378600003],[70.22810363700006,42.994346619000055],[70.26045227000003,42.98388290400004],[70.23472595200008,42.96500015300006],[70.26869201600005,42.92967224100016],[70.26274109000008,42.89296341000016],[70.25546264600001,42.84811782900016],[70.25870513899997,42.79848098800005],[70.27841186500018,42.78068923900014],[70.26078796400009,42.746665955000026],[70.253753662,42.73308181800002],[70.25370788700008,42.732997895000096],[70.35861206000015,42.68490600600012]]]]}}]}